{
  "type": "FeatureCollection",
  "features": [
    {
      "type": "Feature",
      "properties": {
        "norad_id": 47041,
        "name": "FENGYUN 1C DEB",
        "group": "fengyun-1c-debris",
        "lat": -21.44210476584778,
        "lon": -154.46828812398797,
        "alt_km": 543.2451100717026,
        "timestamp": "2025-12-27T05:29:39.493812+00:00",
        "meta_object_name": "FENGYUN 1C DEB",
        "meta_object_id": "1999-025FBT",
        "meta_epoch": "2025-12-23T20:08:36.395232",
        "meta_mean_motion": 15.0773069,
        "meta_eccentricity": 0.00154517,
        "meta_inclination": 98.2551,
        "meta_ra_of_asc_node": 25.163,
        "meta_arg_of_pericenter": 148.8081,
        "meta_mean_anomaly": 24.5751,
        "meta_ephemeris_type": 0,
        "meta_classification_type": "U",
        "meta_norad_cat_id": 47041,
        "meta_element_set_no": 999,
        "meta_rev_at_epoch": 71356,
        "meta_bstar": 0.0017588298,
        "meta_mean_motion_dot": 0.00026947,
        "meta_mean_motion_ddot": 0,
        "tle_line1": "1 47041U 99025FBT 25357.83931013  .00026947  00000+0  17588-2 0  9999",
        "tle_line2": "2 47041  98.2551  25.1630 0015451 148.8081  24.5751 15.07730690713565"
      },
      "geometry": {
        "type": "Point",
        "coordinates": [
          -154.46828812398797,
          -21.44210476584778
        ]
      }
    },
    {
      "type": "Feature",
      "properties": {
        "norad_id": 47042,
        "name": "FENGYUN 1C DEB",
        "group": "fengyun-1c-debris",
        "lat": 35.422575891729416,
        "lon": 85.52130205880394,
        "alt_km": 847.7865522812326,
        "timestamp": "2025-12-27T05:29:39.493822+00:00",
        "meta_object_name": "FENGYUN 1C DEB",
        "meta_object_id": "1999-025FBU",
        "meta_epoch": "2025-12-19T12:00:36.072000",
        "meta_mean_motion": 14.22844145,
        "meta_eccentricity": 0.0055101,
        "meta_inclination": 99.0013,
        "meta_ra_of_asc_node": 251.153,
        "meta_arg_of_pericenter": 15.4542,
        "meta_mean_anomaly": 162.9996,
        "meta_ephemeris_type": 0,
        "meta_classification_type": "U",
        "meta_norad_cat_id": 47042,
        "meta_element_set_no": 999,
        "meta_rev_at_epoch": 62617,
        "meta_bstar": 0.00020738,
        "meta_mean_motion_dot": 4.26e-06,
        "meta_mean_motion_ddot": 0,
        "tle_line1": "1 47042U 99025FBU 25353.50041750  .00000426  00000+0  20738-3 0  9996",
        "tle_line2": "2 47042  99.0013 251.1530 0055101  15.4542 162.9996 14.22844145626170"
      },
      "geometry": {
        "type": "Point",
        "coordinates": [
          85.52130205880394,
          35.422575891729416
        ]
      }
    },
    {
      "type": "Feature",
      "properties": {
        "norad_id": 47100,
        "name": "FENGYUN 1C DEB",
        "group": "fengyun-1c-debris",
        "lat": -35.15835737004787,
        "lon": -171.76152756717448,
        "alt_km": 665.0795790841921,
        "timestamp": "2025-12-27T05:29:39.493832+00:00",
        "meta_object_name": "FENGYUN 1C DEB",
        "meta_object_id": "1999-025FBY",
        "meta_epoch": "2025-12-26T23:02:19.989312",
        "meta_mean_motion": 14.51641488,
        "meta_eccentricity": 0.00892022,
        "meta_inclination": 99.0209,
        "meta_ra_of_asc_node": 181.5255,
        "meta_arg_of_pericenter": 311.034,
        "meta_mean_anomaly": 48.3166,
        "meta_ephemeris_type": 0,
        "meta_classification_type": "U",
        "meta_norad_cat_id": 47100,
        "meta_element_set_no": 999,
        "meta_rev_at_epoch": 26974,
        "meta_bstar": 0.0024009549,
        "meta_mean_motion_dot": 0.00010095,
        "meta_mean_motion_ddot": 0,
        "tle_line1": "1 47100U 99025FBY 25360.95995358  .00010095  00000+0  24010-2 0  9999",
        "tle_line2": "2 47100  99.0209 181.5255 0089202 311.0340  48.3166 14.51641488269741"
      },
      "geometry": {
        "type": "Point",
        "coordinates": [
          -171.76152756717448,
          -35.15835737004787
        ]
      }
    },
    {
      "type": "Feature",
      "properties": {
        "norad_id": 47104,
        "name": "FENGYUN 1C DEB",
        "group": "fengyun-1c-debris",
        "lat": 25.05177002697281,
        "lon": 26.658323367255473,
        "alt_km": 826.6688375864906,
        "timestamp": "2025-12-27T05:29:39.493842+00:00",
        "meta_object_name": "FENGYUN 1C DEB",
        "meta_object_id": "1999-025FCC",
        "meta_epoch": "2025-12-26T20:54:59.612256",
        "meta_mean_motion": 14.19440629,
        "meta_eccentricity": 0.00400148,
        "meta_inclination": 98.9078,
        "meta_ra_of_asc_node": 30.5029,
        "meta_arg_of_pericenter": 295.8122,
        "meta_mean_anomaly": 63.8928,
        "meta_ephemeris_type": 0,
        "meta_classification_type": "U",
        "meta_norad_cat_id": 47104,
        "meta_element_set_no": 999,
        "meta_rev_at_epoch": 62573,
        "meta_bstar": 0.00024248762,
        "meta_mean_motion_dot": 4.69e-06,
        "meta_mean_motion_ddot": 0,
        "tle_line1": "1 47104U 99025FCC 25360.87152329  .00000469  00000+0  24249-3 0  9996",
        "tle_line2": "2 47104  98.9078  30.5029 0040014 295.8122  63.8928 14.19440629625735"
      },
      "geometry": {
        "type": "Point",
        "coordinates": [
          26.658323367255473,
          25.05177002697281
        ]
      }
    }
  ]
}